ORBCOMM FM24 [-]        
1 25478U 98053D   24090.63196934  .00002277  00000+0  83384-3 0  9993
2 25478  45.0067 207.8187 0002493 199.6217 160.4535 14.35443985333656
ORBCOMM FM25 [-]        
1 25479U 98053E   24090.66729788  .00002138  00000+0  78600-3 0  9997
2 25479  45.0061 205.8932 0005033 196.9066 163.1614 14.35427760333956
ORBCOMM FM26 [-]        
1 25480U 98053F   24090.65842923  .00001836  00000+0  68910-3 0  9992
2 25480  45.0056 199.8860 0007272 211.4800 148.5612 14.34900980333897
ORBCOMM FM27 [+]        
1 25481U 98053G   24090.72452722  .00002290  00000+0  83897-3 0  9991
2 25481  45.0046 205.8876 0001553 236.2629 123.8070 14.35406535333894
ORBCOMM FM28 [-]        
1 25482U 98053H   24090.86276002  .00002412  00000+0  87292-3 0  9991
2 25482  45.0043 143.8398 0005936 245.3088 114.7142 14.35855343334582
ORBCOMM FM30 [-]        
1 25980U 99065A   24090.90281537  .00002603  00000+0  95368-3 0  9997
2 25980  45.0329  24.2215 0007333 311.6974  48.3246 14.35044756270726
ORBCOMM FM31 [-]        
1 25981U 99065B   24090.52037275  .00001651  00000+0  62307-3 0  9993
2 25981  45.0243  19.7474 0004528 330.7757  29.2836 14.35047637271198
ORBCOMM FM32 [+]        
1 25982U 99065C   24090.54213305  .00001889  00000+0  72004-3 0  9994
2 25982  45.0170  33.1528 0007075 331.2909  28.7548 14.34017559270993
